{
  "type": "FeatureCollection",
  "features": [
    {
      "type": "Feature",
      "properties": {
        "norad_id": 35065,
        "name": "COSMOS 2251 DEB",
        "group": "cosmos-2251-debris",
        "lat": -73.75587782685686,
        "lon": 97.41718578305273,
        "alt_km": 738.7346432273407,
        "timestamp": "2025-12-10T20:49:52.948550+00:00",
        "meta_object_name": "COSMOS 2251 DEB",
        "meta_object_id": "1993-036AHU",
        "meta_epoch": "2025-12-08T21:05:49.871616",
        "meta_mean_motion": 14.4570853,
        "meta_eccentricity": 0.0019714,
        "meta_inclination": 74.0196,
        "meta_ra_of_asc_node": 201.5431,
        "meta_arg_of_pericenter": 327.1177,
        "meta_mean_anomaly": 32.8753,
        "meta_ephemeris_type": 0,
        "meta_classification_type": "U",
        "meta_norad_cat_id": 35065,
        "meta_element_set_no": 999,
        "meta_rev_at_epoch": 68295,
        "meta_bstar": 0.00050947,
        "meta_mean_motion_dot": 1.782e-05,
        "meta_mean_motion_ddot": 0,
        "tle_line1": "1 35065U 93036AHU 25342.87904944  .00001782  00000+0  50947-3 0  9996",
        "tle_line2": "2 35065  74.0196 201.5431 0019714 327.1177  32.8753 14.45708530682959"
      },
      "geometry": {
        "type": "Point",
        "coordinates": [
          97.41718578305273,
          -73.75587782685686
        ]
      }
    },
    {
      "type": "Feature",
      "properties": {
        "norad_id": 35071,
        "name": "COSMOS 2251 DEB",
        "group": "cosmos-2251-debris",
        "lat": 71.64083338373048,
        "lon": -63.00161346092982,
        "alt_km": 505.8829127687295,
        "timestamp": "2025-12-10T20:49:52.948560+00:00",
        "meta_object_name": "COSMOS 2251 DEB",
        "meta_object_id": "1993-036AJA",
        "meta_epoch": "2025-12-06T06:11:48.969024",
        "meta_mean_motion": 15.03269957,
        "meta_eccentricity": 0.00683754,
        "meta_inclination": 73.9314,
        "meta_ra_of_asc_node": 186.7627,
        "meta_arg_of_pericenter": 85.1943,
        "meta_mean_anomaly": 275.7048,
        "meta_ephemeris_type": 0,
        "meta_classification_type": "U",
        "meta_norad_cat_id": 35071,
        "meta_element_set_no": 999,
        "meta_rev_at_epoch": 67439,
        "meta_bstar": 0.0011992827,
        "meta_mean_motion_dot": 0.00017109,
        "meta_mean_motion_ddot": 0,
        "tle_line1": "1 35071U 93036AJA 25340.25820566  .00017109  00000+0  11993-2 0  9997",
        "tle_line2": "2 35071  73.9314 186.7627 0068375  85.1943 275.7048 15.03269957674390"
      },
      "geometry": {
        "type": "Point",
        "coordinates": [
          -63.00161346092982,
          71.64083338373048
        ]
      }
    },
    {
      "type": "Feature",
      "properties": {
        "norad_id": 35073,
        "name": "COSMOS 2251 DEB",
        "group": "cosmos-2251-debris",
        "lat": -43.77650753501637,
        "lon": 170.35448875411672,
        "alt_km": 577.9909910496972,
        "timestamp": "2025-12-10T20:49:52.948570+00:00",
        "meta_object_name": "COSMOS 2251 DEB",
        "meta_object_id": "1993-036AJC",
        "meta_epoch": "2025-12-06T06:59:58.933248",
        "meta_mean_motion": 14.99991639,
        "meta_eccentricity": 0.00102924,
        "meta_inclination": 74.0009,
        "meta_ra_of_asc_node": 343.7168,
        "meta_arg_of_pericenter": 84.8418,
        "meta_mean_anomaly": 275.3943,
        "meta_ephemeris_type": 0,
        "meta_classification_type": "U",
        "meta_norad_cat_id": 35073,
        "meta_element_set_no": 999,
        "meta_rev_at_epoch": 67382,
        "meta_bstar": 0.0044204403,
        "meta_mean_motion_dot": 0.00055435,
        "meta_mean_motion_ddot": 0,
        "tle_line1": "1 35073U 93036AJC 25340.29165432  .00055435  00000+0  44204-2 0  9992",
        "tle_line2": "2 35073  74.0009 343.7168 0010292  84.8418 275.3943 14.99991639673828"
      },
      "geometry": {
        "type": "Point",
        "coordinates": [
          170.35448875411672,
          -43.77650753501637
        ]
      }
    },
    {
      "type": "Feature",
      "properties": {
        "norad_id": 35284,
        "name": "COSMOS 2251 DEB",
        "group": "cosmos-2251-debris",
        "lat": 10.933152797858527,
        "lon": -88.96346642956759,
        "alt_km": 754.4910914629636,
        "timestamp": "2025-12-10T20:49:52.948579+00:00",
        "meta_object_name": "COSMOS 2251 DEB",
        "meta_object_id": "1993-036AJN",
        "meta_epoch": "2025-12-10T13:14:03.525216",
        "meta_mean_motion": 14.38314131,
        "meta_eccentricity": 0.00167131,
        "meta_inclination": 74.0492,
        "meta_ra_of_asc_node": 268.4521,
        "meta_arg_of_pericenter": 345.4107,
        "meta_mean_anomaly": 187.6081,
        "meta_ephemeris_type": 0,
        "meta_classification_type": "U",
        "meta_norad_cat_id": 35284,
        "meta_element_set_no": 999,
        "meta_rev_at_epoch": 65494,
        "meta_bstar": 0.00028793639,
        "meta_mean_motion_dot": 8.52e-06,
        "meta_mean_motion_ddot": 0,
        "tle_line1": "1 35284U 93036AJN 25344.55142969  .00000852  00000+0  28794-3 0  9999",
        "tle_line2": "2 35284  74.0492 268.4521 0016713 345.4107 187.6081 14.38314131654948"
      },
      "geometry": {
        "type": "Point",
        "coordinates": [
          -88.96346642956759,
          10.933152797858527
        ]
      }
    },
    {
      "type": "Feature",
      "properties": {
        "norad_id": 35287,
        "name": "COSMOS 2251 DEB",
        "group": "cosmos-2251-debris",
        "lat": -19.405354123226218,
        "lon": 105.3644488582801,
        "alt_km": 787.7268900829868,
        "timestamp": "2025-12-10T20:49:52.948589+00:00",
        "meta_object_name": "COSMOS 2251 DEB",
        "meta_object_id": "1993-036AJR",
        "meta_epoch": "2025-12-10T14:03:04.398048",
        "meta_mean_motion": 14.36373479,
        "meta_eccentricity": 0.00174634,
        "meta_inclination": 74.0305,
        "meta_ra_of_asc_node": 280.094,
        "meta_arg_of_pericenter": 17.3808,
        "meta_mean_anomaly": 162.5,
        "meta_ephemeris_type": 0,
        "meta_classification_type": "U",
        "meta_norad_cat_id": 35287,
        "meta_element_set_no": 999,
        "meta_rev_at_epoch": 86861,
        "meta_bstar": 0.00024410503,
        "meta_mean_motion_dot": 6.9e-06,
        "meta_mean_motion_ddot": 0,
        "tle_line1": "1 35287U 93036AJR 25344.58546757  .00000690  00000+0  24411-3 0  9990",
        "tle_line2": "2 35287  74.0305 280.0940 0017463  17.3808 162.5000 14.36373479868617"
      },
      "geometry": {
        "type": "Point",
        "coordinates": [
          105.3644488582801,
          -19.405354123226218
        ]
      }
    },
    {
      "type": "Feature",
      "properties": {
        "norad_id": 35288,
        "name": "COSMOS 2251 DEB",
        "group": "cosmos-2251-debris",
        "lat": 24.40484461555429,
        "lon": -168.7091083631026,
        "alt_km": 678.5556063130034,
        "timestamp": "2025-12-10T20:49:52.948599+00:00",
        "meta_object_name": "COSMOS 2251 DEB",
        "meta_object_id": "1993-036AJS",
        "meta_epoch": "2025-12-10T08:39:21.633984",
        "meta_mean_motion": 14.65413781,
        "meta_eccentricity": 0.00395397,
        "meta_inclination": 73.951,
        "meta_ra_of_asc_node": 19.7768,
        "meta_arg_of_pericenter": 253.6203,
        "meta_mean_anomaly": 106.0616,
        "meta_ephemeris_type": 0,
        "meta_classification_type": "U",
        "meta_norad_cat_id": 35288,
        "meta_element_set_no": 999,
        "meta_rev_at_epoch": 87843,
        "meta_bstar": 0.0015164998,
        "meta_mean_motion_dot": 8.275e-05,
        "meta_mean_motion_ddot": 0,
        "tle_line1": "1 35288U 93036AJS 25344.36066706  .00008275  00000+0  15165-2 0  9990",
        "tle_line2": "2 35288  73.9510  19.7768 0039539 253.6203 106.0616 14.65413781878431"
      },
      "geometry": {
        "type": "Point",
        "coordinates": [
          -168.7091083631026,
          24.40484461555429
        ]
      }
    },
    {
      "type": "Feature",
      "properties": {
        "norad_id": 35290,
        "name": "COSMOS 2251 DEB",
        "group": "cosmos-2251-debris",
        "lat": -25.33511377042293,
        "lon": 55.32528766242617,
        "alt_km": 634.9625317254759,
        "timestamp": "2025-12-10T20:49:52.948609+00:00",
        "meta_object_name": "COSMOS 2251 DEB",
        "meta_object_id": "1993-036AJU",
        "meta_epoch": "2025-12-09T15:45:15.254784",
        "meta_mean_motion": 14.80228211,
        "meta_eccentricity": 0.00025765,
        "meta_inclination": 74.005,
        "meta_ra_of_asc_node": 65.5213,
        "meta_arg_of_pericenter": 202.4691,
        "meta_mean_anomaly": 157.6373,
        "meta_ephemeris_type": 0,
        "meta_classification_type": "U",
        "meta_norad_cat_id": 35290,
        "meta_element_set_no": 999,
        "meta_rev_at_epoch": 87912,
        "meta_bstar": 0.0031261297,
        "meta_mean_motion_dot": 0.00023834,
        "meta_mean_motion_ddot": 0,
        "tle_line1": "1 35290U 93036AJU 25343.65642656  .00023834  00000+0  31261-2 0  9991",
        "tle_line2": "2 35290  74.0050  65.5213 0002576 202.4691 157.6373 14.80228211879121"
      },
      "geometry": {
        "type": "Point",
        "coordinates": [
          55.32528766242617,
          -25.33511377042293
        ]
      }
    }
  ]
}